ONEWEB-0685             
1 54679U 22166AP  26201.09561582  .00009571  00000+0  23085-1 0  9995
2 54679  87.9258 237.4327 0002368  96.1143 264.0261 13.21922753175765
ONEWEB-0712             
1 54680U 22166AQ  26201.11867981  .00000037  00000+0  61887-4 0  9995
2 54680  87.9079 222.2333 0001899 107.1998 252.9341 13.16595357176391
ONEWEB-0714             
1 54681U 22166AR  26201.10122090  .00000099  00000+0  20890-3 0  9996
2 54681  87.9229 237.4267 0002117 104.0947 256.0422 13.21826586175882
ONEWEB-0532             
1 55140U 23004A   26200.98880556 -.00000003  00000+0 -39756-4 0  9991
2 55140  87.9152 359.3384 0001887  82.3196 277.8150 13.17648783171903
ONEWEB-0533             
1 55141U 23004B   26200.93444560  .00000323  00000+0  86297-3 0  9992
2 55141  87.8972 344.1596 0001648  98.1216 262.0100 13.12441651172354
ONEWEB-0541             
1 55142U 23004C   26200.98991561 -.00000093  00000+0 -29817-3 0  9997
2 55142  87.8895  14.5284 0001996  88.5302 271.6054 13.11418809170244
ONEWEB-0543             
1 55143U 23004D   26201.09426845  .00000014  00000+0  31184-5 0  9992
2 55143  87.9192 328.9247 0001945 105.9156 254.2191 13.18686474174034
ONEWEB-0544             
1 55144U 23004E   26201.31515198 -.00000025  00000+0 -97226-4 0  9990
2 55144  87.9193 328.8803 0002110 101.4229 258.7140 13.18685316174060
ONEWEB-0560             
1 55145U 23004F   26200.85315754  .00000084  00000+0  17940-3 0  9992
2 55145  87.9193 328.9618 0002132 104.5469 255.5900 13.18685300174017
ONEWEB-0565             
1 55146U 23004G   26200.84641213 -.00000136  00000+0 -37793-3 0  9992
2 55146  87.9181 328.9881 0002286  93.3735 266.7659 13.18685849174000
ONEWEB-0567             
1 55147U 23004H   26201.06728735  .00000046  00000+0  84883-4 0  9994
2 55147  87.9194 328.9311 0002272  97.3408 262.7982 13.18687962174035
ONEWEB-0569             
1 55148U 23004J   26201.29774705  .00000186  00000+0  47550-3 0  9992
2 55148  87.8991 313.6340 0002764 108.4407 251.7023 13.13470858174529
ONEWEB-0570             
1 55149U 23004K   26201.05886150 -.00000088  00000+0 -25666-3 0  9992
2 55149  87.9192 328.9301 0001932  86.4389 273.6964 13.18685685174023
ONEWEB-0571             
1 55150U 23004L   26201.27975927  .00000040  00000+0  69826-4 0  9992
2 55150  87.9194 328.8860 0003175  96.0068 264.1426 13.18687035174061
ONEWEB-0572             
1 55151U 23004M   26200.94407667 -.00000088  00000+0 -25922-3 0  9999
2 55151  87.9151 359.3488 0002002  91.6803 268.4558 13.17648186171799
ONEWEB-0573             
1 55152U 23004N   26201.12124512  .00000127  00000+0  29048-3 0  9991
2 55152  87.9194 328.9194 0002724  92.7147 267.4297 13.18684988174037
