{"fetched_at":"2026-07-20T18:28:52.300Z","source":"https://celestrak.org/NORAD/elements/gp.php?GROUP=oneweb&FORMAT=JSON","constellation":"oneweb","records":[{"OBJECT_NAME":"ONEWEB-0685","OBJECT_ID":"2022-166AP","EPOCH":"2026-07-20T02:17:41.206848","CLASSIFICATION_TYPE":"U","MEAN_MOTION":13.21922753,"ECCENTRICITY":0.00023689,"INCLINATION":87.9258,"RA_OF_ASC_NODE":237.4327,"ARG_OF_PERICENTER":96.1143,"MEAN_ANOMALY":264.0261,"EPHEMERIS_TYPE":0,"NORAD_CAT_ID":54679,"ELEMENT_SET_NO":999,"REV_AT_EPOCH":17576,"BSTAR":0.023084901,"MEAN_MOTION_DOT":0.00009571,"MEAN_MOTION_DDOT":0},{"OBJECT_NAME":"ONEWEB-0712","OBJECT_ID":"2022-166AQ","EPOCH":"2026-07-20T02:50:53.935584","CLASSIFICATION_TYPE":"U","MEAN_MOTION":13.16595357,"ECCENTRICITY":0.00018998,"INCLINATION":87.9079,"RA_OF_ASC_NODE":222.2333,"ARG_OF_PERICENTER":107.1998,"MEAN_ANOMALY":252.9341,"EPHEMERIS_TYPE":0,"NORAD_CAT_ID":54680,"ELEMENT_SET_NO":999,"REV_AT_EPOCH":17639,"BSTAR":0.000061887105,"MEAN_MOTION_DOT":3.7e-7,"MEAN_MOTION_DDOT":0},{"OBJECT_NAME":"ONEWEB-0714","OBJECT_ID":"2022-166AR","EPOCH":"2026-07-20T02:25:45.485760","CLASSIFICATION_TYPE":"U","MEAN_MOTION":13.21826586,"ECCENTRICITY":0.00021179,"INCLINATION":87.9229,"RA_OF_ASC_NODE":237.4267,"ARG_OF_PERICENTER":104.0947,"MEAN_ANOMALY":256.0422,"EPHEMERIS_TYPE":0,"NORAD_CAT_ID":54681,"ELEMENT_SET_NO":999,"REV_AT_EPOCH":17588,"BSTAR":0.00020889649,"MEAN_MOTION_DOT":9.9e-7,"MEAN_MOTION_DDOT":0},{"OBJECT_NAME":"ONEWEB-0532","OBJECT_ID":"2023-004A","EPOCH":"2026-07-19T23:43:52.800384","CLASSIFICATION_TYPE":"U","MEAN_MOTION":13.17648783,"ECCENTRICITY":0.00018872,"INCLINATION":87.9152,"RA_OF_ASC_NODE":359.3384,"ARG_OF_PERICENTER":82.3196,"MEAN_ANOMALY":277.815,"EPHEMERIS_TYPE":0,"NORAD_CAT_ID":55140,"ELEMENT_SET_NO":999,"REV_AT_EPOCH":17190,"BSTAR":-0.000039755614,"MEAN_MOTION_DOT":-3e-8,"MEAN_MOTION_DDOT":0},{"OBJECT_NAME":"ONEWEB-0533","OBJECT_ID":"2023-004B","EPOCH":"2026-07-19T22:25:36.099840","CLASSIFICATION_TYPE":"U","MEAN_MOTION":13.12441651,"ECCENTRICITY":0.00016485,"INCLINATION":87.8972,"RA_OF_ASC_NODE":344.1596,"ARG_OF_PERICENTER":98.1216,"MEAN_ANOMALY":262.01,"EPHEMERIS_TYPE":0,"NORAD_CAT_ID":55141,"ELEMENT_SET_NO":999,"REV_AT_EPOCH":17235,"BSTAR":0.00086297311,"MEAN_MOTION_DOT":0.00000323,"MEAN_MOTION_DDOT":0},{"OBJECT_NAME":"ONEWEB-0541","OBJECT_ID":"2023-004C","EPOCH":"2026-07-19T23:45:28.708704","CLASSIFICATION_TYPE":"U","MEAN_MOTION":13.11418809,"ECCENTRICITY":0.00019964,"INCLINATION":87.8895,"RA_OF_ASC_NODE":14.5284,"ARG_OF_PERICENTER":88.5302,"MEAN_ANOMALY":271.6054,"EPHEMERIS_TYPE":0,"NORAD_CAT_ID":55142,"ELEMENT_SET_NO":999,"REV_AT_EPOCH":17024,"BSTAR":-0.00029816591,"MEAN_MOTION_DOT":-9.3e-7,"MEAN_MOTION_DDOT":0},{"OBJECT_NAME":"ONEWEB-0543","OBJECT_ID":"2023-004D","EPOCH":"2026-07-20T02:15:44.794080","CLASSIFICATION_TYPE":"U","MEAN_MOTION":13.18686474,"ECCENTRICITY":0.00019456,"INCLINATION":87.9192,"RA_OF_ASC_NODE":328.9247,"ARG_OF_PERICENTER":105.9156,"MEAN_ANOMALY":254.2191,"EPHEMERIS_TYPE":0,"NORAD_CAT_ID":55143,"ELEMENT_SET_NO":999,"REV_AT_EPOCH":17403,"BSTAR":0.000003118382,"MEAN_MOTION_DOT":1.4e-7,"MEAN_MOTION_DDOT":0},{"OBJECT_NAME":"ONEWEB-0544","OBJECT_ID":"2023-004E","EPOCH":"2026-07-20T07:33:49.131072","CLASSIFICATION_TYPE":"U","MEAN_MOTION":13.18685316,"ECCENTRICITY":0.00021101,"INCLINATION":87.9193,"RA_OF_ASC_NODE":328.8803,"ARG_OF_PERICENTER":101.4229,"MEAN_ANOMALY":258.714,"EPHEMERIS_TYPE":0,"NORAD_CAT_ID":55144,"ELEMENT_SET_NO":999,"REV_AT_EPOCH":17406,"BSTAR":-0.000097225778,"MEAN_MOTION_DOT":-2.5e-7,"MEAN_MOTION_DDOT":0},{"OBJECT_NAME":"ONEWEB-0560","OBJECT_ID":"2023-004F","EPOCH":"2026-07-19T20:28:32.811456","CLASSIFICATION_TYPE":"U","MEAN_MOTION":13.186853,"ECCENTRICITY":0.00021328,"INCLINATION":87.9193,"RA_OF_ASC_NODE":328.9618,"ARG_OF_PERICENTER":104.5469,"MEAN_ANOMALY":255.59,"EPHEMERIS_TYPE":0,"NORAD_CAT_ID":55145,"ELEMENT_SET_NO":999,"REV_AT_EPOCH":17401,"BSTAR":0.00017940301,"MEAN_MOTION_DOT":8.4e-7,"MEAN_MOTION_DDOT":0},{"OBJECT_NAME":"ONEWEB-0565","OBJECT_ID":"2023-004G","EPOCH":"2026-07-19T20:18:50.008032","CLASSIFICATION_TYPE":"U","MEAN_MOTION":13.18685849,"ECCENTRICITY":0.00022861,"INCLINATION":87.9181,"RA_OF_ASC_NODE":328.9881,"ARG_OF_PERICENTER":93.3735,"MEAN_ANOMALY":266.7659,"EPHEMERIS_TYPE":0,"NORAD_CAT_ID":55146,"ELEMENT_SET_NO":999,"REV_AT_EPOCH":17400,"BSTAR":-0.00037793156,"MEAN_MOTION_DOT":-0.00000136,"MEAN_MOTION_DDOT":0},{"OBJECT_NAME":"ONEWEB-0567","OBJECT_ID":"2023-004H","EPOCH":"2026-07-20T01:36:53.627040","CLASSIFICATION_TYPE":"U","MEAN_MOTION":13.18687962,"ECCENTRICITY":0.00022722,"INCLINATION":87.9194,"RA_OF_ASC_NODE":328.9311,"ARG_OF_PERICENTER":97.3408,"MEAN_ANOMALY":262.7982,"EPHEMERIS_TYPE":0,"NORAD_CAT_ID":55147,"ELEMENT_SET_NO":999,"REV_AT_EPOCH":17403,"BSTAR":0.000084883363,"MEAN_MOTION_DOT":4.6e-7,"MEAN_MOTION_DDOT":0},{"OBJECT_NAME":"ONEWEB-0569","OBJECT_ID":"2023-004J","EPOCH":"2026-07-20T07:08:45.345120","CLASSIFICATION_TYPE":"U","MEAN_MOTION":13.13470858,"ECCENTRICITY":0.0002764,"INCLINATION":87.8991,"RA_OF_ASC_NODE":313.634,"ARG_OF_PERICENTER":108.4407,"MEAN_ANOMALY":251.7023,"EPHEMERIS_TYPE":0,"NORAD_CAT_ID":55148,"ELEMENT_SET_NO":999,"REV_AT_EPOCH":17452,"BSTAR":0.00047549874,"MEAN_MOTION_DOT":0.00000186,"MEAN_MOTION_DDOT":0},{"OBJECT_NAME":"ONEWEB-0570","OBJECT_ID":"2023-004K","EPOCH":"2026-07-20T01:24:45.633600","CLASSIFICATION_TYPE":"U","MEAN_MOTION":13.18685685,"ECCENTRICITY":0.00019323,"INCLINATION":87.9192,"RA_OF_ASC_NODE":328.9301,"ARG_OF_PERICENTER":86.4389,"MEAN_ANOMALY":273.6964,"EPHEMERIS_TYPE":0,"NORAD_CAT_ID":55149,"ELEMENT_SET_NO":999,"REV_AT_EPOCH":17402,"BSTAR":-0.00025666273,"MEAN_MOTION_DOT":-8.8e-7,"MEAN_MOTION_DDOT":0},{"OBJECT_NAME":"ONEWEB-0571","OBJECT_ID":"2023-004L","EPOCH":"2026-07-20T06:42:51.200928","CLASSIFICATION_TYPE":"U","MEAN_MOTION":13.18687035,"ECCENTRICITY":0.00031755,"INCLINATION":87.9194,"RA_OF_ASC_NODE":328.886,"ARG_OF_PERICENTER":96.0068,"MEAN_ANOMALY":264.1426,"EPHEMERIS_TYPE":0,"NORAD_CAT_ID":55150,"ELEMENT_SET_NO":999,"REV_AT_EPOCH":17406,"BSTAR":0.000069825753,"MEAN_MOTION_DOT":4e-7,"MEAN_MOTION_DDOT":0},{"OBJECT_NAME":"ONEWEB-0572","OBJECT_ID":"2023-004M","EPOCH":"2026-07-19T22:39:28.224288","CLASSIFICATION_TYPE":"U","MEAN_MOTION":13.17648186,"ECCENTRICITY":0.0002002,"INCLINATION":87.9151,"RA_OF_ASC_NODE":359.3488,"ARG_OF_PERICENTER":91.6803,"MEAN_ANOMALY":268.4558,"EPHEMERIS_TYPE":0,"NORAD_CAT_ID":55151,"ELEMENT_SET_NO":999,"REV_AT_EPOCH":17179,"BSTAR":-0.00025921681,"MEAN_MOTION_DOT":-8.8e-7,"MEAN_MOTION_DDOT":0},{"OBJECT_NAME":"ONEWEB-0573","OBJECT_ID":"2023-004N","EPOCH":"2026-07-20T02:54:35.578368","CLASSIFICATION_TYPE":"U","MEAN_MOTION":13.18684988,"ECCENTRICITY":0.00027246,"INCLINATION":87.9194,"RA_OF_ASC_NODE":328.9194,"ARG_OF_PERICENTER":92.7147,"MEAN_ANOMALY":267.4297,"EPHEMERIS_TYPE":0,"NORAD_CAT_ID":55152,"ELEMENT_SET_NO":999,"REV_AT_EPOCH":17403,"BSTAR":0.0002904764,"MEAN_MOTION_DOT":0.00000127,"MEAN_MOTION_DDOT":0}]}
